[{"OBJECT_NAME":"ION SCV-011","OBJECT_ID":"2023-084AB","EPOCH":"2026-03-09T22:35:16.566144","MEAN_MOTION":15.27752464,"ECCENTRICITY":0.00079323,"INCLINATION":98.1356,"RA_OF_ASC_NODE":247.1056,"ARG_OF_PERICENTER":30.3898,"MEAN_ANOMALY":329.7798,"EPHEMERIS_TYPE":0,"CLASSIFICATION_TYPE":"U","NORAD_CAT_ID":56957,"ELEMENT_SET_NO":999,"REV_AT_EPOCH":15065,"BSTAR":0.0002590454,"MEAN_MOTION_DOT":6.943e-5,"MEAN_MOTION_DDOT":0},{"OBJECT_NAME":"STARLINK-36114","OBJECT_ID":"2025-281Y","EPOCH":"2026-03-09T04:00:11.807712","MEAN_MOTION":15.27579451,"ECCENTRICITY":0.00017389,"INCLINATION":43.0035,"RA_OF_ASC_NODE":346.5907,"ARG_OF_PERICENTER":277.5261,"MEAN_ANOMALY":82.5393,"EPHEMERIS_TYPE":0,"CLASSIFICATION_TYPE":"U","NORAD_CAT_ID":66870,"ELEMENT_SET_NO":999,"REV_AT_EPOCH":1609,"BSTAR":0.0010411177,"MEAN_MOTION_DOT":0.00028498,"MEAN_MOTION_DDOT":0}]
